0 COSMOS 2467
1 37152U 10043A   13282.72698687  .00000046  00000-0  25992-3 0  1212
2 37152 082.4523 083.0735 0000897 142.5647 217.5496 12.42862937139947
0 COSMOS 2467
1 37152U 10043A   13282.96848261  .00000046  00000-0  26084-3 0  1227
2 37152 082.4522 082.9223 0000906 142.3427 217.7715 12.42862946139970
0 COSMOS 2467
1 37152U 10043A   13284.17596168  .00000032  00000-0  16223-3 0  1238
2 37152 082.4526 082.1671 0000971 143.1785 216.9361 12.42862853140125
0 COSMOS 2467
1 37152U 10043A   13286.51042121  .00000017  00000-0  50251-4 0  1269
2 37152 082.4523 080.7061 0001029 142.6691 217.4468 12.42862771140419
0 COSMOS 2467
1 37152U 10043A   13286.75191685  .00000012  00000-0  18956-4 0  1277
2 37152 082.4522 080.5550 0001039 142.4815 217.6334 12.42862723140440
0 COSMOS 2467
1 37152U 10043A   13287.95939542  .00000023  00000-0  92159-4 0  1282
2 37152 082.4523 079.7994 0001104 142.8263 217.2893 12.42862885140598
0 COSMOS 2467
1 37152U 10043A   13288.52288534  .00000031  00000-0  15096-3 0  1298
2 37152 082.4526 079.4470 0001104 142.9006 217.2157 12.42863032140669
0 COSMOS 2467
1 37152U 10043A   13288.76438094  .00000038  00000-0  20132-3 0  1308
2 37152 082.4527 079.2958 0001106 142.2090 217.9075 12.42863130140695
0 COSMOS 2467
1 37152U 10043A   13289.08637509  .00000044  00000-0  24838-3 0  1311
2 37152 082.4527 079.0945 0001120 140.9821 219.1341 12.42863213140739
0 COSMOS 2467
1 37152U 10043A   13290.13285613  .00000051  00000-0  30033-3 0  1327
2 37152 082.4531 078.4405 0001141 140.0832 220.0329 12.42863387140867
0 COSMOS 2467
1 37152U 10043A   13291.17933721  .00000063  00000-0  38182-3 0  1339
2 37152 082.4534 077.7859 0001180 139.3794 220.7376 12.42863610140998
0 COSMOS 2467
1 37152U 10043A   13292.06482112  .00000066  00000-0  40564-3 0  1342
2 37152 082.4535 077.2316 0001218 138.9838 221.1334 12.42863731141105
0 COSMOS 2467
1 37152U 10043A   13292.86980650  .00000062  00000-0  37799-3 0  1353
2 37152 082.4536 076.7280 0001238 137.8571 222.2596 12.42863753141201
0 COSMOS 2467
1 37152U 10043A   13294.15778345  .00000047  00000-0  26746-3 0  1367
2 37152 082.4542 075.9228 0001296 136.9561 223.1609 12.42863672141366
0 COSMOS 2467
1 37152U 10043A   13295.12376637  .00000034  00000-0  17675-3 0  1371
2 37152 082.4542 075.3183 0001342 134.9331 225.1853 12.42863603141485
0 COSMOS 2467
1 37152U 10043A   13296.17024742  .00000027  00000-0  12753-3 0  1389
2 37152 082.4544 074.6635 0001355 133.8610 226.2573 12.42863591141615
